{
  "type": "FeatureCollection",
  "features": [
    {
      "type": "Feature",
      "properties": {
        "norad_id": 32113,
        "name": "FENGYUN 1C DEB",
        "group": "fengyun-1c-debris",
        "lat": -40.00729929055079,
        "lon": 36.974773025072814,
        "alt_km": 987.8948993525846,
        "timestamp": "2025-12-20T16:47:36.571959+00:00",
        "meta_object_name": "FENGYUN 1C DEB",
        "meta_object_id": "1999-025CRF",
        "meta_epoch": "2025-12-14T19:47:44.837664",
        "meta_mean_motion": 13.94564965,
        "meta_eccentricity": 0.02380847,
        "meta_inclination": 99.0277,
        "meta_ra_of_asc_node": 23.5568,
        "meta_arg_of_pericenter": 220.9453,
        "meta_mean_anomaly": 137.3616,
        "meta_ephemeris_type": 0,
        "meta_classification_type": "U",
        "meta_norad_cat_id": 32113,
        "meta_element_set_no": 999,
        "meta_rev_at_epoch": 62915,
        "meta_bstar": 0.0009179447,
        "meta_mean_motion_dot": 1.508e-05,
        "meta_mean_motion_ddot": 0,
        "tle_line1": "1 32113U 99025CRF 25348.82482451  .00001508  00000+0  91794-3 0  9997",
        "tle_line2": "2 32113  99.0277  23.5568 0238084 220.9453 137.3616 13.94564965629157"
      },
      "geometry": {
        "type": "Point",
        "coordinates": [
          36.974773025072814,
          -40.00729929055079
        ]
      }
    },
    {
      "type": "Feature",
      "properties": {
        "norad_id": 32114,
        "name": "FENGYUN 1C DEB",
        "group": "fengyun-1c-debris",
        "lat": -74.87431469522744,
        "lon": 153.95446430320683,
        "alt_km": 620.820605675045,
        "timestamp": "2025-12-20T16:47:36.571974+00:00",
        "meta_object_name": "FENGYUN 1C DEB",
        "meta_object_id": "1999-025CRG",
        "meta_epoch": "2025-12-06T13:19:21.641376",
        "meta_mean_motion": 14.76489439,
        "meta_eccentricity": 0.00447682,
        "meta_inclination": 99.9287,
        "meta_ra_of_asc_node": 96.1919,
        "meta_arg_of_pericenter": 3.5911,
        "meta_mean_anomaly": 356.5605,
        "meta_ephemeris_type": 0,
        "meta_classification_type": "U",
        "meta_norad_cat_id": 32114,
        "meta_element_set_no": 999,
        "meta_rev_at_epoch": 65638,
        "meta_bstar": 0.0040574802,
        "meta_mean_motion_dot": 0.0002877,
        "meta_mean_motion_ddot": 0,
        "tle_line1": "1 32114U 99025CRG 25340.55511159  .00028770  00000+0  40575-2 0  9998",
        "tle_line2": "2 32114  99.9287  96.1919 0044768   3.5911 356.5605 14.76489439656383"
      },
      "geometry": {
        "type": "Point",
        "coordinates": [
          153.95446430320683,
          -74.87431469522744
        ]
      }
    },
    {
      "type": "Feature",
      "properties": {
        "norad_id": 32117,
        "name": "FENGYUN 1C DEB",
        "group": "fengyun-1c-debris",
        "lat": 20.577006154664367,
        "lon": 36.61502995313057,
        "alt_km": 798.9665530385728,
        "timestamp": "2025-12-20T16:47:36.571987+00:00",
        "meta_object_name": "FENGYUN 1C DEB",
        "meta_object_id": "1999-025CRK",
        "meta_epoch": "2025-12-18T02:18:00.201024",
        "meta_mean_motion": 14.23964713,
        "meta_eccentricity": 0.00265666,
        "meta_inclination": 98.6134,
        "meta_ra_of_asc_node": 37.3263,
        "meta_arg_of_pericenter": 76.1616,
        "meta_mean_anomaly": 284.2516,
        "meta_ephemeris_type": 0,
        "meta_classification_type": "U",
        "meta_norad_cat_id": 32117,
        "meta_element_set_no": 999,
        "meta_rev_at_epoch": 94873,
        "meta_bstar": 0.00078657764,
        "meta_mean_motion_dot": 1.768e-05,
        "meta_mean_motion_ddot": 0,
        "tle_line1": "1 32117U 99025CRK 25352.09583566  .00001768  00000+0  78658-3 0  9996",
        "tle_line2": "2 32117  98.6134  37.3263 0026566  76.1616 284.2516 14.23964713948732"
      },
      "geometry": {
        "type": "Point",
        "coordinates": [
          36.61502995313057,
          20.577006154664367
        ]
      }
    },
    {
      "type": "Feature",
      "properties": {
        "norad_id": 32119,
        "name": "FENGYUN 1C DEB",
        "group": "fengyun-1c-debris",
        "lat": 17.713920187328437,
        "lon": 41.081891668889305,
        "alt_km": 924.8698115139732,
        "timestamp": "2025-12-20T16:47:36.571997+00:00",
        "meta_object_name": "FENGYUN 1C DEB",
        "meta_object_id": "1999-025CRM",
        "meta_epoch": "2025-12-19T09:13:09.200064",
        "meta_mean_motion": 14.02835394,
        "meta_eccentricity": 0.0086037,
        "meta_inclination": 99.8867,
        "meta_ra_of_asc_node": 216.4615,
        "meta_arg_of_pericenter": 34.5707,
        "meta_mean_anomaly": 326.1009,
        "meta_ephemeris_type": 0,
        "meta_classification_type": "U",
        "meta_norad_cat_id": 32119,
        "meta_element_set_no": 999,
        "meta_rev_at_epoch": 93821,
        "meta_bstar": 0.00053196,
        "meta_mean_motion_dot": 8e-06,
        "meta_mean_motion_ddot": 0,
        "tle_line1": "1 32119U 99025CRM 25353.38413426  .00000800  00000+0  53196-3 0  9994",
        "tle_line2": "2 32119  99.8867 216.4615 0086037  34.5707 326.1009 14.02835394938213"
      },
      "geometry": {
        "type": "Point",
        "coordinates": [
          41.081891668889305,
          17.713920187328437
        ]
      }
    },
    {
      "type": "Feature",
      "properties": {
        "norad_id": 32123,
        "name": "FENGYUN 1C DEB",
        "group": "fengyun-1c-debris",
        "lat": -46.85164285131678,
        "lon": 172.82470906439568,
        "alt_km": 612.9271573043152,
        "timestamp": "2025-12-20T16:47:36.572010+00:00",
        "meta_object_name": "FENGYUN 1C DEB",
        "meta_object_id": "1999-025CRR",
        "meta_epoch": "2025-12-20T10:41:44.681856",
        "meta_mean_motion": 14.6148538,
        "meta_eccentricity": 0.015948,
        "meta_inclination": 98.9414,
        "meta_ra_of_asc_node": 162.8809,
        "meta_arg_of_pericenter": 269.4654,
        "meta_mean_anomaly": 145.7705,
        "meta_ephemeris_type": 0,
        "meta_classification_type": "U",
        "meta_norad_cat_id": 32123,
        "meta_element_set_no": 999,
        "meta_rev_at_epoch": 71487,
        "meta_bstar": 0.00022288,
        "meta_mean_motion_dot": 1.256e-05,
        "meta_mean_motion_ddot": 0,
        "tle_line1": "1 32123U 99025CRR 25354.44565604  .00001256  00000+0  22288-3 0  9997",
        "tle_line2": "2 32123  98.9414 162.8809 0159480 269.4654 145.7705 14.61485380714871"
      },
      "geometry": {
        "type": "Point",
        "coordinates": [
          172.82470906439568,
          -46.85164285131678
        ]
      }
    },
    {
      "type": "Feature",
      "properties": {
        "norad_id": 32125,
        "name": "FENGYUN 1C DEB",
        "group": "fengyun-1c-debris",
        "lat": -17.956311575238725,
        "lon": -21.115015738282437,
        "alt_km": 575.5427716112617,
        "timestamp": "2025-12-20T16:47:36.572020+00:00",
        "meta_object_name": "FENGYUN 1C DEB",
        "meta_object_id": "1999-025CRT",
        "meta_epoch": "2025-12-14T04:03:21.187008",
        "meta_mean_motion": 14.69917548,
        "meta_eccentricity": 0.0174033,
        "meta_inclination": 99.062,
        "meta_ra_of_asc_node": 328.6692,
        "meta_arg_of_pericenter": 318.7989,
        "meta_mean_anomaly": 40.0184,
        "meta_ephemeris_type": 0,
        "meta_classification_type": "U",
        "meta_norad_cat_id": 32125,
        "meta_element_set_no": 999,
        "meta_rev_at_epoch": 70544,
        "meta_bstar": 0.002785531,
        "meta_mean_motion_dot": 0.00021057,
        "meta_mean_motion_ddot": 0,
        "tle_line1": "1 32125U 99025CRT 25348.16899522  .00021057  00000+0  27855-2 0  9995",
        "tle_line2": "2 32125  99.0620 328.6692 0174033 318.7989  40.0184 14.69917548705441"
      },
      "geometry": {
        "type": "Point",
        "coordinates": [
          -21.115015738282437,
          -17.956311575238725
        ]
      }
    },
    {
      "type": "Feature",
      "properties": {
        "norad_id": 32126,
        "name": "FENGYUN 1C DEB",
        "group": "fengyun-1c-debris",
        "lat": 69.23059795941835,
        "lon": 75.21295523394481,
        "alt_km": 1160.4211048404723,
        "timestamp": "2025-12-20T16:47:36.572030+00:00",
        "meta_object_name": "FENGYUN 1C DEB",
        "meta_object_id": "1999-025CRU",
        "meta_epoch": "2025-12-14T22:11:18.681792",
        "meta_mean_motion": 13.56802944,
        "meta_eccentricity": 0.02807648,
        "meta_inclination": 99.1097,
        "meta_ra_of_asc_node": 224.8335,
        "meta_arg_of_pericenter": 249.9124,
        "meta_mean_anomaly": 107.16,
        "meta_ephemeris_type": 0,
        "meta_classification_type": "U",
        "meta_norad_cat_id": 32126,
        "meta_element_set_no": 999,
        "meta_rev_at_epoch": 61744,
        "meta_bstar": 0.001056147,
        "meta_mean_motion_dot": 9.24e-06,
        "meta_mean_motion_ddot": 0,
        "tle_line1": "1 32126U 99025CRU 25348.92452178  .00000924  00000+0  10561-2 0  9998",
        "tle_line2": "2 32126  99.1097 224.8335 0280764 249.9124 107.1600 13.56802944617445"
      },
      "geometry": {
        "type": "Point",
        "coordinates": [
          75.21295523394481,
          69.23059795941835
        ]
      }
    }
  ]
}